0 FENGYUN 1C DEB
1 30564U 99025ALE 13282.61601782  .00000504  00000-0  31252-3 0  7230
2 30564 099.1873 311.2179 0231072 196.1907 290.5719 13.97252911340773
0 FENGYUN 1C DEB
1 30564U 99025ALE 13285.33816772  .00000308  00000-0  20070-3 0  7259
2 30564 099.1865 313.9417 0231259 188.7890 303.2389 13.97257448341151
0 FENGYUN 1C DEB
1 30564U 99025ALE 13286.55957937  .00000369  00000-0  23551-3 0  7268
2 30564 099.1860 315.1638 0231339 185.4661 327.0724 13.97258815341329
0 FENGYUN 1C DEB
1 30564U 99025ALE 13287.56227829  .00000421  00000-0  26488-3 0  7272
2 30564 099.1855 316.1671 0231392 182.7412 330.7565 13.97260888341466
0 FENGYUN 1C DEB
1 30564U 99025ALE 13289.04156748  .00000401  00000-0  25358-3 0  7282
2 30564 099.1849 317.6471 0231456 178.7166 211.7613 13.97263584341676
0 FENGYUN 1C DEB
1 30564U 99025ALE 13290.63608905  .00000389  00000-0  24621-3 0  7294
2 30564 099.1844 319.2422 0231531 174.3711 312.4199 13.97264686341893
0 FENGYUN 1C DEB
1 30564U 99025ALE 13292.04965384  .00000443  00000-0  27701-3 0  7303
2 30564 099.1842 320.6561 0231578 170.5148 222.8552 13.97264947342094
0 FENGYUN 1C DEB
1 30564U 99025ALE 13293.05704088  .00000540  00000-0  33236-3 0  7316
2 30564 099.1841 321.6636 0231607 167.7643 250.1622 13.97265419342231
0 FENGYUN 1C DEB
1 30564U 99025ALE 13294.57954112  .00000690  00000-0  41701-3 0  7322
2 30564 099.1840 323.1864 0231647 163.6023 348.5750 13.97266823342448
0 FENGYUN 1C DEB
1 30564U 99025ALE 13295.77764912  .00000806  00000-0  48327-3 0  7333
2 30564 099.1836 324.3846 0231718 160.3161 255.2637 13.97267542342618
